satname,norad_id,inclination_deg,eccentricity,mean_motion_rev_per_day,perigee_km,apogee_km,l1,l2
STARLINK-1316,45415,53.1529,0.0001139,15.42073894,439.2128633654611,440.7660325703073,1 45415U 20019BH  26192.69200285  .00035783  00000+0  83027-3 0  9991,2 45415  53.1529 268.1606 0001139 276.6052  83.4824 15.42073894349050
STARLINK-1286,45417,53.0431,0.000641,15.68121696,359.9538178683779,368.5975909554336,1 45417U 20019BK  26192.17906420  .00043793  00000+0  38855-3 0  9999,2 45417  53.0431 250.4879 0006410   8.9916 351.1213 15.68121696349487
STARLINK-1308,45419,53.045,0.0003832,15.69155651,358.73099460935555,363.89610951245504,1 45419U 20019BM  26192.49417196  .00034489  00000+0  29489-3 0  9998,2 45419  53.0450 267.9967 0003832 117.3986 242.7421 15.69155651349012
STARLINK-1329,45531,53.0375,0.0003817,15.78110355,333.232137448691,338.35755301934205,1 45531U 20025A   26192.37395042  .00055591  00000+0  32099-3 0  9990,2 45531  53.0375 190.2696 0003817  19.1240 340.9923 15.78110355344874
STARLINK-1338,45532,53.0397,0.0003019,15.74853266,343.01903268947626,347.07849225285554,1 45532U 20025B   26192.48266150  .00043689  00000+0  29247-3 0  9996,2 45532  53.0397 197.3530 0003019  64.7345 295.3986 15.74853266344783
STARLINK-1350,45535,53.0697,0.000174,15.40049361,444.77610517467747,447.1508921482109,1 45535U 20025E   26192.34909572  .00033231  00000+0  82537-3 0  9999,2 45535  53.0697 171.0058 0001740  61.9597 298.1583 15.40049361345185
STARLINK-1362,45538,53.1537,0.0006045,15.40327721,441.0166582228876,449.26600172382496,1 45538U 20025H   26192.57274693 -.00058397  00000+0 -14262-2 0  9997,2 45538  53.1537 241.4648 0006045 353.4683   6.6242 15.40327721344202
STARLINK-1368,45540,53.1546,0.0003761,15.40649914,441.6241273638061,446.755881736628,1 45540U 20025K   26192.71199645  .00028507  00000+0  69595-3 0  9997,2 45540  53.1546 241.1320 0003761 341.8670  18.2201 15.40649914344214
STARLINK-1371,45542,53.0371,0.0004428,15.71712536,351.02135287912006,356.98333548232677,1 45542U 20025M   26192.08872915 -.00013451  00000+0 -97536-4 0  9998,2 45542  53.0371 209.8986 0004428  87.2903 272.8621 15.71712536344579
STARLINK-1372,45543,53.1549,0.0004072,15.41038348,440.26594821260187,445.82111763861667,1 45543U 20025N   26191.75287718  .00036702  00000+0  88086-3 0  9994,2 45543  53.1549 245.0515 0004072 329.2584  30.8182 15.41038348343175
STARLINK-1373,45544,53.0427,0.0002485,15.73445504,347.3866137672421,350.73002984217965,1 45544U 20025P   26191.42127700  .00038128  00000+0  27192-3 0  9998,2 45544  53.0427 207.8756 0002485  24.5125 335.6010 15.73445504344544
STARLINK-1327,45555,53.0378,0.0002538,15.75365665,341.8848659256846,345.2968149774988,1 45555U 20025AA  26191.01938672  .00059283  00000+0  38597-3 0  9999,2 45555  53.0378 187.0248 0002538  72.7600 287.3696 15.75365665344799
STARLINK-1356,45564,53.0394,0.000458,15.68110796,361.21890956489915,367.3949882220859,1 45564U 20025AK  26192.48312417  .00032294  00000+0  28853-3 0  9991,2 45564  53.0394 194.1616 0004580  42.9515 317.1857 15.68110796344828
STARLINK-1357,45565,53.0402,0.0001297,15.73463369,348.1348909895114,349.87991224729194,1 45565U 20025AL  26192.28569940  .00047099  00000+0  33428-3 0  9998,2 45565  53.0402 150.6890 0001297 205.9927 154.1026 15.73463369345427
STARLINK-1361,45567,53.0385,0.0002645,15.71903775,351.67580190833996,355.23681476845013,1 45567U 20025AN  26192.82548610  .00037742  00000+0  28739-3 0  9994,2 45567  53.0385 190.3584 0002645  72.0235 288.1070 15.71903775344911
STARLINK-1376,45570,53.1579,0.0002229,15.41539224,440.04578519908137,443.08600875055345,1 45570U 20025AR  26192.43422095  .00027574  00000+0  65415-3 0  9997,2 45570  53.1579 218.1316 0002229 340.6873  19.4048 15.41539224344510
STARLINK-1320,45572,53.0357,0.0002488,16.01436231,268.78642471192416,272.09475692111573,1 45572U 20025AT  26192.87642807  .00273625  43164-4  48469-3 0  9995,2 45572  53.0357  81.3245 0002488 128.5640 231.5613 16.01436231346459
STARLINK-1321,45573,53.0384,0.0001652,15.72419874,350.8714513703999,353.0950831066957,1 45573U 20025AU  26192.50586249  .00041968  00000+0  31205-3 0  9993,2 45573  53.0384 175.7088 0001652  90.8592 269.2615 15.72419874344787
STARLINK-1331,45578,53.0431,0.0002061,15.7214683,351.37524605242015,354.14972281990504,1 45578U 20025AZ  26192.85187589  .00039799  00000+0  29966-3 0  9990,2 45578  53.0431 180.9680 0002061  71.7297 288.3944 15.72146830345053
STARLINK-1333,45580,53.1544,0.0004344,15.38554368,447.4170661524204,453.3496846545704,1 45580U 20025BB  26192.54854459  .00021581  00000+0  56721-3 0  9995,2 45580  53.1544 219.8432 0004344 352.0512   8.0422 15.38554368344508
STARLINK-1335,45581,53.151,0.000315,15.40075677,443.7361935196641,448.0353278588982,1 45581U 20025BC  26192.47609075  .00031417  00000+0  78036-3 0  9992,2 45581  53.1510 216.4888 0003150 326.6256  33.4550 15.40075677344537
STARLINK-1337,45582,53.0399,0.0001748,15.79778526,329.8948488948299,332.240386829234,1 45582U 20025BD  26192.84655199  .00065618  00000+0  35050-3 0  9991,2 45582  53.0399 168.2173 0001748 103.3931 256.7284 15.79778526345219
STARLINK-1347,45586,53.0357,0.0001678,15.72398305,350.9154884729951,353.1741374894327,1 45586U 20025BH  26192.47128620  .00045004  00000+0  33448-3 0  9994,2 45586  53.0357 142.1939 0001678  64.1534 295.9656 15.72398305345543
STARLINK-1364,45589,53.0401,0.0003305,15.73001231,348.10117595996326,352.5486892974304,1 45589U 20025BL  26192.39866030 -.00079623  00000+0 -57282-3 0  9990,2 45589  53.0401 179.0785 0003305  36.8976 323.2269 15.73001231345027
STARLINK-1365,45590,53.0419,0.0002371,15.68266305,362.26269407590826,365.45974963271146,1 45590U 20025BM  26192.46851245  .00030472  00000+0  27096-3 0  9999,2 45590  53.0419 214.4820 0002371  43.9294 316.1910 15.68266305344556
STARLINK-1443,45660,53.1303,0.0002425,15.35162043,458.78087005624,462.0975795252625,1 45660U 20035D   26192.86915226  .00027666  00000+0  80715-3 0  9990,2 45660  53.1303 207.6736 0002425  41.9113 318.2075 15.35162043337774
STARLINK-1446,45663,53.0196,0.0002239,15.49628219,416.2912113360753,419.3344376674868,1 45663U 20035G   26192.21770472  .00022196  00000+0  40144-3 0  9999,2 45663  53.0196 129.7860 0002239  18.9097 341.1993 15.49628219338789
STARLINK-1448,45665,53.0381,0.0002206,15.77065164,337.2791835056951,340.24267887293627,1 45665U 20035J   26192.83148626  .00062563  00000+0  37771-3 0  9993,2 45665  53.0381 163.8352 0002206  87.7589 272.3683 15.77065164338355
STARLINK-1451,45668,53.0488,0.0002002,15.15745703,517.3348478337566,520.0963476138859,1 45668U 20035M   26192.47276562  .00013296  00000+0  70372-3 0  9990,2 45668  53.0488 224.6669 0002002   6.5984 353.5035 15.15745703337487
STARLINK-1452,45669,53.0206,0.0006974,15.64742674,369.27000102644797,378.6878523209716,1 45669U 20035N   26192.89029345  .00029764  00000+0  30470-3 0  9994,2 45669  53.0206 141.3528 0006974  65.8289 294.3453 15.64742674338680
STARLINK-1453,45670,53.0348,0.0001837,15.7790763,335.1364356776394,337.6033455092438,1 45670U 20035P   26192.85162289  .00071673  00000+0  41582-3 0  9999,2 45670  53.0348 123.8783 0001837 155.2254 204.8855 15.77907630338812
STARLINK-1454,45671,53.04,0.0001666,15.75457007,342.2112327057948,344.4508258531514,1 45671U 20035Q   26192.55334968  .00056116  00000+0  36429-3 0  9991,2 45671  53.0400 166.8454 0001666  83.2247 276.8961 15.75457007338280
STARLINK-1456,45673,53.0393,0.0001515,15.71760362,352.84588001820794,354.88567686007536,1 45673U 20035S   26192.00175952  .00043202  00000+0  33011-3 0  9995,2 45673  53.0393 164.7688 0001515  78.9689 281.1498 15.71760362338284
STARLINK-1458,45675,53.0435,0.0004539,15.63349606,374.92283787533233,381.0560494608935,1 45675U 20035U   26192.40282885 -.00010863  00000+0 -11019-3 0  9998,2 45675  53.0435 179.5446 0004539  52.7415 307.4012 15.63349606338071
STARLINK-1460,45676,53.1535,0.0004473,15.38212089,448.3414641221443,454.4511646251831,1 45676U 20035V   26192.46307488  .00029329  00000+0  77496-3 0  9998,2 45676  53.1535 207.4745 0004473  16.6234 343.4916 15.38212089337700
STARLINK-1392,45677,53.1506,0.0005004,15.41638099,437.8618666619486,444.68673349106484,1 45677U 20035W   26191.43415028  .00034525  00000+0  81299-3 0  9995,2 45677  53.1506 210.1428 0005004   6.0783 354.0283 15.41638099337613
STARLINK-1394,45679,53.0371,0.000143,15.70257256,357.1978774268673,359.1244587029332,1 45679U 20035Y   26192.27881877  .00039751  00000+0  32393-3 0  9996,2 45679  53.0371 153.8980 0001430  94.1772 265.9408 15.70257256338451
STARLINK-1402,45685,53.0374,0.0001284,15.67432692,365.3854436061238,367.1174025531709,1 45685U 20035AE  26192.29428685  .00035196  00000+0  32276-3 0  9998,2 45685  53.0374 146.2043 0001284 106.0925 254.0232 15.67432692338579
STARLINK-1404,45686,53.1536,0.0004652,15.47722482,420.22625545910796,426.55439648319316,1 45686U 20035AF  26192.58898683  .00047709  00000+0  90932-3 0  9996,2 45686  53.1536 184.8457 0004652   0.6445 359.4569 15.47722482338071
STARLINK-1413,45689,53.154,0.0004783,15.37953245,448.89565337697513,455.42951796062516,1 45689U 20035AJ  26192.43964672  .00028513  00000+0  76008-3 0  9995,2 45689  53.1540 192.2593 0004783  16.6316 343.4844 15.37953245337870
STARLINK-1417,45693,53.0423,0.000163,15.1833946,509.7359254077819,511.98173804892485,1 45693U 20035AN  26192.44807563  .00012929  00000+0  63615-3 0  9990,2 45693  53.0423 210.8173 0001630 307.1150  52.9695 15.18339460337666
STARLINK-1420,45695,53.0423,0.0001449,15.74420967,345.3050241041228,347.2537599745365,1 45695U 20035AQ  26191.26535237  .00065334  00000+0  44243-3 0  9991,2 45695  53.0423 141.2712 0001449 134.5591 225.5546 15.74420967338549
STARLINK-1422,45696,53.15,0.0001919,15.39794389,445.40711608576476,448.02649497632774,1 45696U 20035AR  26192.42094963  .00030791  00000+0  77221-3 0  9998,2 45696  53.1500 192.0567 0001919  75.8578 284.2641 15.39794389337958
